[{"OBJECT_NAME":"INTELSAT 35E (IS-35E)","OBJECT_ID":"2017-041A","EPOCH":"2026-03-05T04:14:38.535360","MEAN_MOTION":1.0027089,"ECCENTRICITY":0.0002225,"INCLINATION":0.0257,"RA_OF_ASC_NODE":241.7413,"ARG_OF_PERICENTER":103.6087,"MEAN_ANOMALY":206.6952,"EPHEMERIS_TYPE":0,"CLASSIFICATION_TYPE":"U","NORAD_CAT_ID":42818,"ELEMENT_SET_NO":999,"REV_AT_EPOCH":3177,"BSTAR":0,"MEAN_MOTION_DOT":-2.47e-6,"MEAN_MOTION_DDOT":0},{"OBJECT_NAME":"FALCON 9 R/B","OBJECT_ID":"2017-041B","EPOCH":"2026-03-05T08:50:04.184736","MEAN_MOTION":2.04399899,"ECCENTRICITY":0.7456148,"INCLINATION":25.4226,"RA_OF_ASC_NODE":214.5876,"ARG_OF_PERICENTER":19.317,"MEAN_ANOMALY":357.891,"EPHEMERIS_TYPE":0,"CLASSIFICATION_TYPE":"U","NORAD_CAT_ID":42819,"ELEMENT_SET_NO":999,"REV_AT_EPOCH":6125,"BSTAR":0.001347,"MEAN_MOTION_DOT":1.674e-5,"MEAN_MOTION_DDOT":0},{"OBJECT_NAME":"COSMOS 2520","OBJECT_ID":"2017-046A","EPOCH":"2026-03-04T18:53:38.590080","MEAN_MOTION":1.00275063,"ECCENTRICITY":7.869e-5,"INCLINATION":0.0284,"RA_OF_ASC_NODE":103.8318,"ARG_OF_PERICENTER":15.3936,"MEAN_ANOMALY":11.7225,"EPHEMERIS_TYPE":0,"CLASSIFICATION_TYPE":"U","NORAD_CAT_ID":42907,"ELEMENT_SET_NO":999,"REV_AT_EPOCH":3135,"BSTAR":0,"MEAN_MOTION_DOT":1.26e-6,"MEAN_MOTION_DDOT":0},{"OBJECT_NAME":"BREEZE-M R/B","OBJECT_ID":"2017-046C","EPOCH":"2026-03-05T23:51:40.704768","MEAN_MOTION":0.90332357,"ECCENTRICITY":0.0755686,"INCLINATION":8.4057,"RA_OF_ASC_NODE":69.2662,"ARG_OF_PERICENTER":159.1687,"MEAN_ANOMALY":204.2934,"EPHEMERIS_TYPE":0,"CLASSIFICATION_TYPE":"U","NORAD_CAT_ID":42909,"ELEMENT_SET_NO":999,"REV_AT_EPOCH":2822,"BSTAR":0,"MEAN_MOTION_DOT":-1.63e-6,"MEAN_MOTION_DDOT":0},{"OBJECT_NAME":"TDRS 13","OBJECT_ID":"2017-047A","EPOCH":"2026-03-06T04:50:14.676000","MEAN_MOTION":1.00272313,"ECCENTRICITY":0.00104387,"INCLINATION":3.4298,"RA_OF_ASC_NODE":0.109,"ARG_OF_PERICENTER":98.7322,"MEAN_ANOMALY":126.1699,"EPHEMERIS_TYPE":0,"CLASSIFICATION_TYPE":"U","NORAD_CAT_ID":42915,"ELEMENT_SET_NO":999,"REV_AT_EPOCH":3131,"BSTAR":0,"MEAN_MOTION_DOT":-1.04e-6,"MEAN_MOTION_DDOT":0},{"OBJECT_NAME":"QZS-3 (MICHIBIKI-3)","OBJECT_ID":"2017-048A","EPOCH":"2026-03-06T05:46:38.659872","MEAN_MOTION":1.00275459,"ECCENTRICITY":0.00022867,"INCLINATION":0.0688,"RA_OF_ASC_NODE":213.6075,"ARG_OF_PERICENTER":145.5938,"MEAN_ANOMALY":18.422,"EPHEMERIS_TYPE":0,"CLASSIFICATION_TYPE":"U","NORAD_CAT_ID":42917,"ELEMENT_SET_NO":999,"REV_AT_EPOCH":3122,"BSTAR":0,"MEAN_MOTION_DOT":-3.53e-6,"MEAN_MOTION_DDOT":0},{"OBJECT_NAME":"AMAZONAS 5","OBJECT_ID":"2017-053A","EPOCH":"2026-03-04T03:36:38.720160","MEAN_MOTION":1.00267618,"ECCENTRICITY":0.00054213,"INCLINATION":0.0068,"RA_OF_ASC_NODE":291.1162,"ARG_OF_PERICENTER":42.1232,"MEAN_ANOMALY":181.8425,"EPHEMERIS_TYPE":0,"CLASSIFICATION_TYPE":"U","NORAD_CAT_ID":42934,"ELEMENT_SET_NO":999,"REV_AT_EPOCH":3099,"BSTAR":0,"MEAN_MOTION_DOT":0,"MEAN_MOTION_DDOT":0},{"OBJECT_NAME":"ASIASAT 9","OBJECT_ID":"2017-057A","EPOCH":"2026-03-06T00:52:38.687232","MEAN_MOTION":1.00269276,"ECCENTRICITY":0.00020751,"INCLINATION":0.0126,"RA_OF_ASC_NODE":138.4043,"ARG_OF_PERICENTER":195.1154,"MEAN_ANOMALY":325.5022,"EPHEMERIS_TYPE":0,"CLASSIFICATION_TYPE":"U","NORAD_CAT_ID":42942,"ELEMENT_SET_NO":999,"REV_AT_EPOCH":3082,"BSTAR":0,"MEAN_MOTION_DOT":-3.65e-6,"MEAN_MOTION_DDOT":0},{"OBJECT_NAME":"INTELSAT 37E (IS-37E)","OBJECT_ID":"2017-059A","EPOCH":"2026-03-06T04:50:14.676000","MEAN_MOTION":1.0027168,"ECCENTRICITY":0.00021502,"INCLINATION":0.0201,"RA_OF_ASC_NODE":142.804,"ARG_OF_PERICENTER":206.2734,"MEAN_ANOMALY":229.3941,"EPHEMERIS_TYPE":0,"CLASSIFICATION_TYPE":"U","NORAD_CAT_ID":42950,"ELEMENT_SET_NO":999,"REV_AT_EPOCH":3103,"BSTAR":0,"MEAN_MOTION_DOT":-1.46e-6,"MEAN_MOTION_DDOT":0},{"OBJECT_NAME":"BSAT-4A","OBJECT_ID":"2017-059B","EPOCH":"2026-03-06T00:47:20.921856","MEAN_MOTION":1.00268651,"ECCENTRICITY":0.0004279,"INCLINATION":0.0161,"RA_OF_ASC_NODE":1.0556,"ARG_OF_PERICENTER":27.2131,"MEAN_ANOMALY":257.1965,"EPHEMERIS_TYPE":0,"CLASSIFICATION_TYPE":"U","NORAD_CAT_ID":42951,"ELEMENT_SET_NO":999,"REV_AT_EPOCH":3076,"BSTAR":0,"MEAN_MOTION_DOT":0,"MEAN_MOTION_DDOT":0},{"OBJECT_NAME":"QZS-4 (MICHIBIKI-4)","OBJECT_ID":"2017-062A","EPOCH":"2026-03-05T17:47:25.010880","MEAN_MOTION":1.00280691,"ECCENTRICITY":0.07484947,"INCLINATION":40.1722,"RA_OF_ASC_NODE":344.8064,"ARG_OF_PERICENTER":269.915,"MEAN_ANOMALY":316.0784,"EPHEMERIS_TYPE":0,"CLASSIFICATION_TYPE":"U","NORAD_CAT_ID":42965,"ELEMENT_SET_NO":999,"REV_AT_EPOCH":3076,"BSTAR":0,"MEAN_MOTION_DOT":-3.41e-6,"MEAN_MOTION_DDOT":0},{"OBJECT_NAME":"SES-11 (ECHOSTAR 105)","OBJECT_ID":"2017-063A","EPOCH":"2026-03-05T04:56:24.893952","MEAN_MOTION":1.00272288,"ECCENTRICITY":0.0002895,"INCLINATION":0.0386,"RA_OF_ASC_NODE":71.4662,"ARG_OF_PERICENTER":270.8534,"MEAN_ANOMALY":149.7752,"EPHEMERIS_TYPE":0,"CLASSIFICATION_TYPE":"U","NORAD_CAT_ID":42967,"ELEMENT_SET_NO":999,"REV_AT_EPOCH":3068,"BSTAR":0,"MEAN_MOTION_DOT":-9.8e-7,"MEAN_MOTION_DDOT":0},{"OBJECT_NAME":"KOREASAT 5A","OBJECT_ID":"2017-067A","EPOCH":"2026-03-06T06:26:38.736960","MEAN_MOTION":1.00267732,"ECCENTRICITY":0.00019717,"INCLINATION":0.0199,"RA_OF_ASC_NODE":133.171,"ARG_OF_PERICENTER":249.1323,"MEAN_ANOMALY":351.5157,"EPHEMERIS_TYPE":0,"CLASSIFICATION_TYPE":"U","NORAD_CAT_ID":42984,"ELEMENT_SET_NO":999,"REV_AT_EPOCH":3049,"BSTAR":0,"MEAN_MOTION_DOT":0,"MEAN_MOTION_DDOT":0},{"OBJECT_NAME":"OPS 5960 DEB","OBJECT_ID":"1970-093D","EPOCH":"2026-03-02T03:05:39.236640","MEAN_MOTION":1.20563314,"ECCENTRICITY":0.1361357,"INCLINATION":15.0593,"RA_OF_ASC_NODE":37.9427,"ARG_OF_PERICENTER":270.8106,"MEAN_ANOMALY":73.6726,"EPHEMERIS_TYPE":0,"CLASSIFICATION_TYPE":"U","NORAD_CAT_ID":43000,"ELEMENT_SET_NO":999,"REV_AT_EPOCH":4433,"BSTAR":0,"MEAN_MOTION_DOT":-1.56e-6,"MEAN_MOTION_DDOT":0},{"OBJECT_NAME":"ALCOMSAT 1","OBJECT_ID":"2017-078A","EPOCH":"2026-03-06T05:16:55.071840","MEAN_MOTION":1.00272226,"ECCENTRICITY":0.00028442,"INCLINATION":0.0574,"RA_OF_ASC_NODE":267.0128,"ARG_OF_PERICENTER":66.8731,"MEAN_ANOMALY":244.4934,"EPHEMERIS_TYPE":0,"CLASSIFICATION_TYPE":"U","NORAD_CAT_ID":43039,"ELEMENT_SET_NO":999,"REV_AT_EPOCH":3026,"BSTAR":0,"MEAN_MOTION_DOT":-1.91e-6,"MEAN_MOTION_DDOT":0},{"OBJECT_NAME":"ANGOSAT 1","OBJECT_ID":"2017-086A","EPOCH":"2026-03-06T06:13:04.687392","MEAN_MOTION":0.99384252,"ECCENTRICITY":0.00193644,"INCLINATION":7.3213,"RA_OF_ASC_NODE":68.4749,"ARG_OF_PERICENTER":179.4039,"MEAN_ANOMALY":181.1425,"EPHEMERIS_TYPE":0,"CLASSIFICATION_TYPE":"U","NORAD_CAT_ID":43087,"ELEMENT_SET_NO":999,"REV_AT_EPOCH":2970,"BSTAR":0,"MEAN_MOTION_DOT":-1.8e-6,"MEAN_MOTION_DDOT":0},{"OBJECT_NAME":"FREGAT R/B","OBJECT_ID":"2017-086B","EPOCH":"2026-03-05T20:24:04.332960","MEAN_MOTION":0.98390347,"ECCENTRICITY":0.01277834,"INCLINATION":7.2802,"RA_OF_ASC_NODE":67.4563,"ARG_OF_PERICENTER":24.9078,"MEAN_ANOMALY":335.8665,"EPHEMERIS_TYPE":0,"CLASSIFICATION_TYPE":"U","NORAD_CAT_ID":43088,"ELEMENT_SET_NO":999,"REV_AT_EPOCH":2942,"BSTAR":0,"MEAN_MOTION_DOT":-2.97e-6,"MEAN_MOTION_DDOT":0}]
