INTELSAT 35E (IS-35E)   
1 42818U 17041A   26064.17683490 -.00000247  00000+0  00000+0 0  9994
2 42818   0.0257 241.7413 0002225 103.6087 206.6952  1.00270890 31772
FALCON 9 R/B            
1 42819U 17041B   26064.36810399  .00001674  00000+0  13470-2 0  9998
2 42819  25.4226 214.5876 7456148  19.3170 357.8910  2.04399899 61256
COSMOS 2520             
1 42907U 17046A   26063.78725220  .00000126  00000+0  00000+0 0  9997
2 42907   0.0284 103.8318 0000786  15.3936  11.7225  1.00275063 31354
BREEZE-M R/B            
1 42909U 17046C   26064.99422112 -.00000163  00000+0  00000+0 0  9999
2 42909   8.4057  69.2662 0755686 159.1687 204.2934  0.90332357 28225
TDRS 13                 
1 42915U 17047A   26065.20155875 -.00000104  00000+0  00000+0 0  9996
2 42915   3.4298   0.1090 0010438  98.7322 126.1699  1.00272313 31317
QZS-3 (MICHIBIKI-3)     
1 42917U 17048A   26065.24072523 -.00000353  00000+0  00000+0 0  9997
2 42917   0.0688 213.6075 0002286 145.5938  18.4220  1.00275459 31222
AMAZONAS 5              
1 42934U 17053A   26063.15044815  .00000000  00000+0  00000+0 0  9991
2 42934   0.0068 291.1162 0005421  42.1232 181.8425  1.00267618 30997
ASIASAT 9               
1 42942U 17057A   26065.03655888 -.00000365  00000+0  00000+0 0  9996
2 42942   0.0126 138.4043 0002075 195.1154 325.5022  1.00269276 30820
INTELSAT 37E (IS-37E)   
1 42950U 17059A   26065.20155875 -.00000146  00000+0  00000+0 0  9994
2 42950   0.0201 142.8040 0002150 206.2734 229.3941  1.00271680 31038
BSAT-4A                 
1 42951U 17059B   26065.03288104  .00000000  00000+0  00000+0 0  9996
2 42951   0.0161   1.0556 0004279  27.2131 257.1965  1.00268651 30766
QZS-4 (MICHIBIKI-4)     
1 42965U 17062A   26064.74126170 -.00000341  00000+0  00000+0 0  9995
2 42965  40.1722 344.8064 0748494 269.9150 316.0784  1.00280691 30763
SES-11 (ECHOSTAR 105)   
1 42967U 17063A   26064.20584368 -.00000098  00000+0  00000+0 0  9995
2 42967   0.0386  71.4662 0002895 270.8534 149.7752  1.00272288 30688
KOREASAT 5A             
1 42984U 17067A   26065.26850390  .00000000  00000+0  00000+0 0  9998
2 42984   0.0199 133.1710 0001971 249.1323 351.5157  1.00267732 30497
OPS 5960 DEB            
1 43000U 70093D   26061.12892635 -.00000156  00000+0  00000+0 0  9998
2 43000  15.0593  37.9427 1361357 270.8106  73.6726  1.20563314 44334
ALCOMSAT 1              
1 43039U 17078A   26065.22008185 -.00000191  00000+0  00000+0 0  9997
2 43039   0.0574 267.0128 0002844  66.8731 244.4934  1.00272226 30265
ANGOSAT 1               
1 43087U 17086A   26065.25908203 -.00000180  00000+0  00000+0 0  9990
2 43087   7.3213  68.4749 0019364 179.4039 181.1425  0.99384252 29706
FREGAT R/B              
1 43088U 17086B   26064.85005015 -.00000297  00000+0  00000+0 0  9994
2 43088   7.2802  67.4563 0127783  24.9078 335.8665  0.98390347 29429
